start=new Date('2023-05-26T00:00:00.000Z').valueOf();
sats=[{"FILE":"3916549","NORAD_CAT_ID":"52606","DECAY_DATE":null,"CENTER_NAME":"EARTH","SEMIMAJOR_AXIS":"6917.862","OBJECT_ID":"2022-052J","RCS_SIZE":"LARGE","OBJECT_TYPE":"PAYLOAD","EPHEMERIS_TYPE":"0","REF_FRAME":"TEME","ECCENTRICITY":"0.00010320","MEAN_MOTION":"15.08846010","TLE_LINE1":"1 52606U 22052J   23144.35630497  .00005891  00000-0  38781-3 0  9994","BSTAR":"0.00038781000000","TIME_SYSTEM":"UTC","LAUNCH_DATE":"2022-05-14","EPOCH":"2023-05-24T08:33:04.749408","PERIOD":"95.437","ELEMENT_SET_NO":"999","TLE_LINE2":"2 52606  53.2146 179.5742 0001032  77.5596 282.5511 15.08846010 56820","MEAN_ANOMALY":"282.5511","OBJECT_NAME":"STARLINK-3928","COUNTRY_CODE":"US","RA_OF_ASC_NODE":"179.5742","MEAN_MOTION_DDOT":"0.0000000000000","PERIAPSIS":"539.013","MEAN_MOTION_DOT":"0.00005891","MEAN_ELEMENT_THEORY":"SGP4","APOAPSIS":"540.441","ARG_OF_PERICENTER":"77.5596","SITE":"AFETR","REV_AT_EPOCH":"5682","GP_ID":"232451418","INCLINATION":"53.2146","CLASSIFICATION_TYPE":"U"},{"MEAN_MOTION_DDOT":"0.0000000000000","PERIAPSIS":"538.977","MEAN_MOTION_DOT":"0.00004515","MEAN_ELEMENT_THEORY":"SGP4","APOAPSIS":"540.502","PERIOD":"95.437","ELEMENT_SET_NO":"999","MEAN_ANOMALY":"291.5743","TLE_LINE2":"2 52607  53.2143 184.7398 0001102  68.5366 291.5743 15.08841915 56732","COUNTRY_CODE":"US","OBJECT_NAME":"STARLINK-3947","RA_OF_ASC_NODE":"184.7398","GP_ID":"232449673","INCLINATION":"53.2143","CLASSIFICATION_TYPE":"U","ARG_OF_PERICENTER":"68.5366","SITE":"AFETR","REV_AT_EPOCH":"5673","RCS_SIZE":"LARGE","OBJECT_TYPE":"PAYLOAD","FILE":"3916549","NORAD_CAT_ID":"52607","DECAY_DATE":null,"CENTER_NAME":"EARTH","SEMIMAJOR_AXIS":"6917.875","OBJECT_ID":"2022-052K","LAUNCH_DATE":"2022-05-14","EPOCH":"2023-05-24T07:43:27.260256","REF_FRAME":"TEME","EPHEMERIS_TYPE":"0","MEAN_MOTION":"15.08841915","ECCENTRICITY":"0.00011020","TLE_LINE1":"1 52607U 22052K   23144.32184329  .00004515  00000-0  30153-3 0  9997","BSTAR":"0.00030153000000","TIME_SYSTEM":"UTC"},{"RCS_SIZE":"LARGE","OBJECT_TYPE":"PAYLOAD","FILE":"3916549","NORAD_CAT_ID":"52608","DECAY_DATE":null,"CENTER_NAME":"EARTH","SEMIMAJOR_AXIS":"6917.882","OBJECT_ID":"2022-052L","LAUNCH_DATE":"2022-05-14","EPOCH":"2023-05-24T08:22:28.900704","EPHEMERIS_TYPE":"0","REF_FRAME":"TEME","MEAN_MOTION":"15.08839464","ECCENTRICITY":"0.00010480","TLE_LINE1":"1 52608U 22052L   23144.34894561  .00003464  00000-0  23563-3 0  9995","BSTAR":"0.00023563000000","TIME_SYSTEM":"UTC","MEAN_MOTION_DDOT":"0.0000000000000","PERIAPSIS":"539.022","MEAN_MOTION_DOT":"0.00003464","MEAN_ELEMENT_THEORY":"SGP4","APOAPSIS":"540.472","PERIOD":"95.438","ELEMENT_SET_NO":"999","TLE_LINE2":"2 52608  53.2147 179.6050 0001048  98.4996 261.6115 15.08839464 56822","MEAN_ANOMALY":"261.6115","OBJECT_NAME":"STARLINK-3979","COUNTRY_CODE":"US","RA_OF_ASC_NODE":"179.6050","GP_ID":"232449921","INCLINATION":"53.2147","CLASSIFICATION_TYPE":"U","ARG_OF_PERICENTER":"98.4996","SITE":"AFETR","REV_AT_EPOCH":"5682"},{"GP_ID":"232450667","CLASSIFICATION_TYPE":"U","INCLINATION":"53.2164","REV_AT_EPOCH":"5684","SITE":"AFETR","ARG_OF_PERICENTER":"83.5750","MEAN_ELEMENT_THEORY":"SGP4","MEAN_MOTION_DOT":"0.00001470","PERIAPSIS":"539.170","MEAN_MOTION_DDOT":"0.0000000000000","APOAPSIS":"540.349","ELEMENT_SET_NO":"999","PERIOD":"95.438","RA_OF_ASC_NODE":"179.0112","COUNTRY_CODE":"US","OBJECT_NAME":"STARLINK-3997","MEAN_ANOMALY":"276.5339","TLE_LINE2":"2 52609  53.2164 179.0112 0000852  83.5750 276.5339 15.08835465 56842","LAUNCH_DATE":"2022-05-14","EPOCH":"2023-05-24T11:17:20.792256","REF_FRAME":"TEME","EPHEMERIS_TYPE":"0","TIME_SYSTEM":"UTC","BSTAR":"0.00011040000000","TLE_LINE1":"1 52609U 22052M   23144.47037954  .00001470  00000-0  11040-3 0  9997","ECCENTRICITY":"0.00008520","MEAN_MOTION":"15.08835465","RCS_SIZE":"LARGE","OBJECT_TYPE":"PAYLOAD","CENTER_NAME":"EARTH","DECAY_DATE":null,"NORAD_CAT_ID":"52609","FILE":"3916549","SEMIMAJOR_AXIS":"6917.894","OBJECT_ID":"2022-052M"},{"OBJECT_ID":"2022-052N","SEMIMAJOR_AXIS":"6917.900","FILE":"3916549","NORAD_CAT_ID":"52610","DECAY_DATE":null,"CENTER_NAME":"EARTH","OBJECT_TYPE":"PAYLOAD","RCS_SIZE":"LARGE","ECCENTRICITY":"0.00010590","MEAN_MOTION":"15.08833583","BSTAR":"0.00012439000000","TLE_LINE1":"1 52610U 22052N   23144.32456469  .00001692  00000-0  12439-3 0  9998","TIME_SYSTEM":"UTC","EPHEMERIS_TYPE":"0","REF_FRAME":"TEME","EPOCH":"2023-05-24T07:47:22.389216","LAUNCH_DATE":"2022-05-14","MEAN_ANOMALY":"260.3563","TLE_LINE2":"2 52610  53.2158 184.7166 0001059  99.7549 260.3563 15.08833583 56742","OBJECT_NAME":"STARLINK-3998","COUNTRY_CODE":"US","RA_OF_ASC_NODE":"184.7166","PERIOD":"95.438","ELEMENT_SET_NO":"999","APOAPSIS":"540.498","MEAN_MOTION_DDOT":"0.0000000000000","PERIAPSIS":"539.032","MEAN_MOTION_DOT":"0.00001692","MEAN_ELEMENT_THEORY":"SGP4","ARG_OF_PERICENTER":"99.7549","SITE":"AFETR","REV_AT_EPOCH":"5674","INCLINATION":"53.2158","CLASSIFICATION_TYPE":"U","GP_ID":"232450918"},{"LAUNCH_DATE":"2022-05-14","EPOCH":"2023-05-24T07:36:46.297728","EPHEMERIS_TYPE":"0","REF_FRAME":"TEME","TIME_SYSTEM":"UTC","BSTAR":"0.00015976000000","TLE_LINE1":"1 52611U 22052P   23144.31720252  .00002255  00000-0  15976-3 0  9997","ECCENTRICITY":"0.00011120","MEAN_MOTION":"15.08834379","RCS_SIZE":"LARGE","OBJECT_TYPE":"PAYLOAD","DECAY_DATE":null,"CENTER_NAME":"EARTH","NORAD_CAT_ID":"52611","FILE":"3916549","SEMIMAJOR_AXIS":"6917.898","OBJECT_ID":"2022-052P","GP_ID":"232450174","CLASSIFICATION_TYPE":"U","INCLINATION":"53.2163","SITE":"AFETR","REV_AT_EPOCH":"5674","ARG_OF_PERICENTER":"75.6093","MEAN_ELEMENT_THEORY":"SGP4","MEAN_MOTION_DOT":"0.00002255","PERIAPSIS":"538.993","MEAN_MOTION_DDOT":"0.0000000000000","APOAPSIS":"540.532","ELEMENT_SET_NO":"999","PERIOD":"95.438","RA_OF_ASC_NODE":"184.7510","COUNTRY_CODE":"US","OBJECT_NAME":"STARLINK-3980","TLE_LINE2":"2 52611  53.2163 184.7510 0001112  75.6093 284.5023 15.08834379 56742","MEAN_ANOMALY":"284.5023"},{"APOAPSIS":"540.567","MEAN_MOTION_DDOT":"0.0000000000000","PERIAPSIS":"538.914","MEAN_MOTION_DOT":"0.00002740","MEAN_ELEMENT_THEORY":"SGP4","MEAN_ANOMALY":"275.0657","TLE_LINE2":"2 52612  53.2148 179.6233 0001195  85.0471 275.0657 15.08841572 56827","COUNTRY_CODE":"US","OBJECT_NAME":"STARLINK-4002","RA_OF_ASC_NODE":"179.6233","PERIOD":"95.437","ELEMENT_SET_NO":"999","INCLINATION":"53.2148","CLASSIFICATION_TYPE":"U","GP_ID":"232450422","ARG_OF_PERICENTER":"85.0471","REV_AT_EPOCH":"5682","SITE":"AFETR","OBJECT_TYPE":"PAYLOAD","RCS_SIZE":"LARGE","SEMIMAJOR_AXIS":"6917.876","OBJECT_ID":"2022-052Q","FILE":"3916549","NORAD_CAT_ID":"52612","CENTER_NAME":"EARTH","DECAY_DATE":null,"EPOCH":"2023-05-24T08:17:10.864896","LAUNCH_DATE":"2022-05-14","MEAN_MOTION":"15.08841572","ECCENTRICITY":"0.00011950","BSTAR":"0.00019014000000","TLE_LINE1":"1 52612U 22052Q   23144.34526464  .00002740  00000-0  19014-3 0  9996","TIME_SYSTEM":"UTC","REF_FRAME":"TEME","EPHEMERIS_TYPE":"0"},{"EPOCH":"2023-05-24T11:02:47.116320","LAUNCH_DATE":"2022-05-14","ECCENTRICITY":"0.00009970","MEAN_MOTION":"15.08833652","TIME_SYSTEM":"UTC","BSTAR":"0.00011411000000","TLE_LINE1":"1 52613U 22052R   23144.46026755  .00001528  00000-0  11411-3 0  9994","REF_FRAME":"TEME","EPHEMERIS_TYPE":"0","OBJECT_TYPE":"PAYLOAD","RCS_SIZE":"LARGE","SEMIMAJOR_AXIS":"6917.900","OBJECT_ID":"2022-052R","FILE":"3916549","CENTER_NAME":"EARTH","DECAY_DATE":null,"NORAD_CAT_ID":"52613","CLASSIFICATION_TYPE":"U","INCLINATION":"53.2153","GP_ID":"232451168","ARG_OF_PERICENTER":"98.7432","SITE":"AFETR","REV_AT_EPOCH":"5697","APOAPSIS":"540.455","PERIAPSIS":"539.075","MEAN_MOTION_DDOT":"0.0000000000000","MEAN_ELEMENT_THEORY":"SGP4","MEAN_MOTION_DOT":"0.00001528","MEAN_ANOMALY":"261.3673","TLE_LINE2":"2 52613  53.2153 169.1085 0000997  98.7432 261.3673 15.08833652 56972","RA_OF_ASC_NODE":"169.1085","COUNTRY_CODE":"US","OBJECT_NAME":"STARLINK-3921","PERIOD":"95.438","ELEMENT_SET_NO":"999"},{"TIME_SYSTEM":"UTC","BSTAR":"0.00020366000000","TLE_LINE1":"1 52614U 22052S   23144.46394726  .00002955  00000-0  20366-3 0  9995","ECCENTRICITY":"0.00008960","MEAN_MOTION":"15.08838107","REF_FRAME":"TEME","EPHEMERIS_TYPE":"0","EPOCH":"2023-05-24T11:08:05.043264","LAUNCH_DATE":"2022-05-14","OBJECT_ID":"2022-052S","SEMIMAJOR_AXIS":"6917.886","DECAY_DATE":null,"CENTER_NAME":"EARTH","NORAD_CAT_ID":"52614","FILE":"3916549","OBJECT_TYPE":"PAYLOAD","RCS_SIZE":"LARGE","REV_AT_EPOCH":"5697","SITE":"AFETR","ARG_OF_PERICENTER":"84.1557","CLASSIFICATION_TYPE":"U","INCLINATION":"53.2150","GP_ID":"232451419","RA_OF_ASC_NODE":"169.0900","OBJECT_NAME":"STARLINK-3982","COUNTRY_CODE":"US","MEAN_ANOMALY":"275.9537","TLE_LINE2":"2 52614  53.2150 169.0900 0000896  84.1557 275.9537 15.08838107 56970","ELEMENT_SET_NO":"999","PERIOD":"95.438","APOAPSIS":"540.371","MEAN_ELEMENT_THEORY":"SGP4","MEAN_MOTION_DOT":"0.00002955","PERIAPSIS":"539.131","MEAN_MOTION_DDOT":"0.0000000000000"},{"ELEMENT_SET_NO":"999","PERIOD":"95.438","COUNTRY_CODE":"US","OBJECT_NAME":"STARLINK-4011","RA_OF_ASC_NODE":"184.4706","TLE_LINE2":"2 52615  53.2164 184.4706 0001068  81.3247 278.7866 15.08840688 57129","MEAN_ANOMALY":"278.7866","MEAN_MOTION_DOT":"0.00002733","MEAN_ELEMENT_THEORY":"SGP4","MEAN_MOTION_DDOT":"0.0000000000000","PERIAPSIS":"539.004","APOAPSIS":"540.482","REV_AT_EPOCH":"5712","SITE":"AFETR","ARG_OF_PERICENTER":"81.3247","GP_ID":"232455867","INCLINATION":"53.2164","CLASSIFICATION_TYPE":"U","NORAD_CAT_ID":"52615","DECAY_DATE":null,"CENTER_NAME":"EARTH","FILE":"3916677","SEMIMAJOR_AXIS":"6917.878","OBJECT_ID":"2022-052T","RCS_SIZE":"LARGE","OBJECT_TYPE":"PAYLOAD","REF_FRAME":"TEME","EPHEMERIS_TYPE":"0","TLE_LINE1":"1 52615U 22052T   23144.37976042  .00002733  00000-0  18971-3 0  9996","BSTAR":"0.00018971000000","TIME_SYSTEM":"UTC","ECCENTRICITY":"0.00010680","MEAN_MOTION":"15.08840688","LAUNCH_DATE":"2022-05-14","EPOCH":"2023-05-24T09:06:51.300288"}];
